[{"OBJECT_NAME":"TIANMU-1 10","OBJECT_ID":"2023-101D","EPOCH":"2026-03-28T22:31:34.485312","MEAN_MOTION":15.29331384,"ECCENTRICITY":0.00064839,"INCLINATION":97.2717,"RA_OF_ASC_NODE":140.6615,"ARG_OF_PERICENTER":83.5509,"MEAN_ANOMALY":276.6469,"EPHEMERIS_TYPE":0,"CLASSIFICATION_TYPE":"U","NORAD_CAT_ID":57402,"ELEMENT_SET_NO":999,"REV_AT_EPOCH":14937,"BSTAR":0.00029969938,"MEAN_MOTION_DOT":8.459e-5,"MEAN_MOTION_DDOT":0},{"OBJECT_NAME":"FENGYUN 3F","OBJECT_ID":"2023-111A","EPOCH":"2026-03-28T22:12:20.761920","MEAN_MOTION":14.19923841,"ECCENTRICITY":8.962e-5,"INCLINATION":98.6888,"RA_OF_ASC_NODE":159.4119,"ARG_OF_PERICENTER":80.8203,"MEAN_ANOMALY":279.3075,"EPHEMERIS_TYPE":0,"CLASSIFICATION_TYPE":"U","NORAD_CAT_ID":57490,"ELEMENT_SET_NO":999,"REV_AT_EPOCH":13747,"BSTAR":5.4245065e-5,"MEAN_MOTION_DOT":7.2e-7,"MEAN_MOTION_DDOT":0},{"OBJECT_NAME":"ARKTIKA-M 2","OBJECT_ID":"2023-198A","EPOCH":"2026-03-23T12:29:12.014880","MEAN_MOTION":2.00606565,"ECCENTRICITY":0.68812187,"INCLINATION":63.222,"RA_OF_ASC_NODE":163.8934,"ARG_OF_PERICENTER":267.7008,"MEAN_ANOMALY":18.8555,"EPHEMERIS_TYPE":0,"CLASSIFICATION_TYPE":"U","NORAD_CAT_ID":58584,"ELEMENT_SET_NO":999,"REV_AT_EPOCH":1660,"BSTAR":0,"MEAN_MOTION_DOT":1.73e-6,"MEAN_MOTION_DDOT":0},{"OBJECT_NAME":"TIANMU-1 11","OBJECT_ID":"2023-205A","EPOCH":"2026-03-28T21:18:18.180288","MEAN_MOTION":15.26129526,"ECCENTRICITY":0.0007138,"INCLINATION":97.3526,"RA_OF_ASC_NODE":110.7281,"ARG_OF_PERICENTER":292.1265,"MEAN_ANOMALY":67.9216,"EPHEMERIS_TYPE":0,"CLASSIFICATION_TYPE":"U","NORAD_CAT_ID":58645,"ELEMENT_SET_NO":999,"REV_AT_EPOCH":12527,"BSTAR":0.0002773008,"MEAN_MOTION_DOT":7.091e-5,"MEAN_MOTION_DDOT":0},{"OBJECT_NAME":"TIANMU-1 12","OBJECT_ID":"2023-205B","EPOCH":"2026-03-28T23:40:41.214432","MEAN_MOTION":15.26065314,"ECCENTRICITY":0.000535,"INCLINATION":97.3514,"RA_OF_ASC_NODE":110.5992,"ARG_OF_PERICENTER":269.9378,"MEAN_ANOMALY":90.1248,"EPHEMERIS_TYPE":0,"CLASSIFICATION_TYPE":"U","NORAD_CAT_ID":58646,"ELEMENT_SET_NO":999,"REV_AT_EPOCH":12527,"BSTAR":0.00028244563,"MEAN_MOTION_DOT":7.208e-5,"MEAN_MOTION_DDOT":0},{"OBJECT_NAME":"TIANMU-1 13","OBJECT_ID":"2023-205C","EPOCH":"2026-03-28T21:15:25.011360","MEAN_MOTION":15.26113613,"ECCENTRICITY":0.00058328,"INCLINATION":97.3542,"RA_OF_ASC_NODE":110.7475,"ARG_OF_PERICENTER":245.7503,"MEAN_ANOMALY":114.3126,"EPHEMERIS_TYPE":0,"CLASSIFICATION_TYPE":"U","NORAD_CAT_ID":58647,"ELEMENT_SET_NO":999,"REV_AT_EPOCH":12525,"BSTAR":0.00027980075,"MEAN_MOTION_DOT":7.151e-5,"MEAN_MOTION_DDOT":0},{"OBJECT_NAME":"TIANMU-1 14","OBJECT_ID":"2023-205D","EPOCH":"2026-03-28T22:28:04.113408","MEAN_MOTION":15.26089573,"ECCENTRICITY":0.00065004,"INCLINATION":97.3477,"RA_OF_ASC_NODE":110.0485,"ARG_OF_PERICENTER":251.9105,"MEAN_ANOMALY":108.1426,"EPHEMERIS_TYPE":0,"CLASSIFICATION_TYPE":"U","NORAD_CAT_ID":58648,"ELEMENT_SET_NO":999,"REV_AT_EPOCH":12526,"BSTAR":0.00029453684,"MEAN_MOTION_DOT":7.527e-5,"MEAN_MOTION_DDOT":0},{"OBJECT_NAME":"TIANMU-1 19","OBJECT_ID":"2023-208A","EPOCH":"2026-03-28T21:24:41.539680","MEAN_MOTION":15.30226079,"ECCENTRICITY":0.00041548,"INCLINATION":97.4399,"RA_OF_ASC_NODE":203.9069,"ARG_OF_PERICENTER":227.4491,"MEAN_ANOMALY":132.64,"EPHEMERIS_TYPE":0,"CLASSIFICATION_TYPE":"U","NORAD_CAT_ID":58660,"ELEMENT_SET_NO":999,"REV_AT_EPOCH":12504,"BSTAR":0.00037857521,"MEAN_MOTION_DOT":0.00011001,"MEAN_MOTION_DDOT":0},{"OBJECT_NAME":"TIANMU-1 20","OBJECT_ID":"2023-208B","EPOCH":"2026-03-28T22:14:46.969728","MEAN_MOTION":15.31414584,"ECCENTRICITY":0.0006097,"INCLINATION":97.434,"RA_OF_ASC_NODE":204.4948,"ARG_OF_PERICENTER":242.2372,"MEAN_ANOMALY":117.8252,"EPHEMERIS_TYPE":0,"CLASSIFICATION_TYPE":"U","NORAD_CAT_ID":58661,"ELEMENT_SET_NO":999,"REV_AT_EPOCH":12513,"BSTAR":0.00040426058,"MEAN_MOTION_DOT":0.00012199,"MEAN_MOTION_DDOT":0},{"OBJECT_NAME":"TIANMU-1 21","OBJECT_ID":"2023-208C","EPOCH":"2026-03-28T21:35:45.279168","MEAN_MOTION":15.33490931,"ECCENTRICITY":0.00061598,"INCLINATION":97.4395,"RA_OF_ASC_NODE":206.8162,"ARG_OF_PERICENTER":235.8656,"MEAN_ANOMALY":124.2003,"EPHEMERIS_TYPE":0,"CLASSIFICATION_TYPE":"U","NORAD_CAT_ID":58662,"ELEMENT_SET_NO":999,"REV_AT_EPOCH":12525,"BSTAR":0.00042345297,"MEAN_MOTION_DOT":0.00013645,"MEAN_MOTION_DDOT":0},{"OBJECT_NAME":"TIANMU-1 22","OBJECT_ID":"2023-208D","EPOCH":"2026-03-28T21:57:15.726240","MEAN_MOTION":15.29814849,"ECCENTRICITY":0.00024474,"INCLINATION":97.4395,"RA_OF_ASC_NODE":203.9278,"ARG_OF_PERICENTER":255.0437,"MEAN_ANOMALY":105.0532,"EPHEMERIS_TYPE":0,"CLASSIFICATION_TYPE":"U","NORAD_CAT_ID":58663,"ELEMENT_SET_NO":999,"REV_AT_EPOCH":12505,"BSTAR":0.0003739824,"MEAN_MOTION_DOT":0.00010727,"MEAN_MOTION_DDOT":0},{"OBJECT_NAME":"TIANMU-1 15","OBJECT_ID":"2024-004A","EPOCH":"2026-03-28T22:24:37.888704","MEAN_MOTION":15.26104398,"ECCENTRICITY":0.00056324,"INCLINATION":97.4679,"RA_OF_ASC_NODE":274.1509,"ARG_OF_PERICENTER":270.8252,"MEAN_ANOMALY":89.234,"EPHEMERIS_TYPE":0,"CLASSIFICATION_TYPE":"U","NORAD_CAT_ID":58700,"ELEMENT_SET_NO":999,"REV_AT_EPOCH":12353,"BSTAR":0.00030256383,"MEAN_MOTION_DOT":7.735e-5,"MEAN_MOTION_DDOT":0},{"OBJECT_NAME":"TIANMU-1 16","OBJECT_ID":"2024-004B","EPOCH":"2026-03-28T22:00:12.738240","MEAN_MOTION":15.26140939,"ECCENTRICITY":0.00040628,"INCLINATION":97.4622,"RA_OF_ASC_NODE":273.4434,"ARG_OF_PERICENTER":274.7587,"MEAN_ANOMALY":85.3187,"EPHEMERIS_TYPE":0,"CLASSIFICATION_TYPE":"U","NORAD_CAT_ID":58701,"ELEMENT_SET_NO":999,"REV_AT_EPOCH":12353,"BSTAR":0.00030098913,"MEAN_MOTION_DOT":7.701e-5,"MEAN_MOTION_DDOT":0},{"OBJECT_NAME":"TIANMU-1 17","OBJECT_ID":"2024-004C","EPOCH":"2026-03-28T23:08:32.915904","MEAN_MOTION":15.26176353,"ECCENTRICITY":0.00032738,"INCLINATION":97.4653,"RA_OF_ASC_NODE":273.9535,"ARG_OF_PERICENTER":275.8806,"MEAN_ANOMALY":84.2059,"EPHEMERIS_TYPE":0,"CLASSIFICATION_TYPE":"U","NORAD_CAT_ID":58702,"ELEMENT_SET_NO":999,"REV_AT_EPOCH":12353,"BSTAR":0.00028090193,"MEAN_MOTION_DOT":7.189e-5,"MEAN_MOTION_DDOT":0},{"OBJECT_NAME":"TIANMU-1 18","OBJECT_ID":"2024-004D","EPOCH":"2026-03-28T22:48:12.955680","MEAN_MOTION":15.26115825,"ECCENTRICITY":0.00026465,"INCLINATION":97.4669,"RA_OF_ASC_NODE":274.1538,"ARG_OF_PERICENTER":274.4809,"MEAN_ANOMALY":85.6127,"EPHEMERIS_TYPE":0,"CLASSIFICATION_TYPE":"U","NORAD_CAT_ID":58703,"ELEMENT_SET_NO":999,"REV_AT_EPOCH":12353,"BSTAR":0.00027723479,"MEAN_MOTION_DOT":7.081e-5,"MEAN_MOTION_DDOT":0},{"OBJECT_NAME":"INSAT-3DS","OBJECT_ID":"2024-033A","EPOCH":"2026-03-28T22:01:16.464288","MEAN_MOTION":1.00271581,"ECCENTRICITY":0.00020559,"INCLINATION":0.0168,"RA_OF_ASC_NODE":129.3952,"ARG_OF_PERICENTER":236.8533,"MEAN_ANOMALY":232.4682,"EPHEMERIS_TYPE":0,"CLASSIFICATION_TYPE":"U","NORAD_CAT_ID":58990,"ELEMENT_SET_NO":999,"REV_AT_EPOCH":4626,"BSTAR":0,"MEAN_MOTION_DOT":-1.75e-6,"MEAN_MOTION_DDOT":0},{"OBJECT_NAME":"METEOR-M2 4","OBJECT_ID":"2024-039A","EPOCH":"2026-03-28T22:09:05.793408","MEAN_MOTION":14.22420184,"ECCENTRICITY":0.00079347,"INCLINATION":98.6939,"RA_OF_ASC_NODE":48.264,"ARG_OF_PERICENTER":48.0081,"MEAN_ANOMALY":312.1772,"EPHEMERIS_TYPE":0,"CLASSIFICATION_TYPE":"U","NORAD_CAT_ID":59051,"ELEMENT_SET_NO":999,"REV_AT_EPOCH":10785,"BSTAR":3.6366713e-5,"MEAN_MOTION_DOT":3.7e-7,"MEAN_MOTION_DDOT":0}]
