TIANMU-1 10             
1 57402U 23101D   26087.93859358  .00008459  00000+0  29970-3 0  9993
2 57402  97.2717 140.6615 0006483  83.5509 276.6469 15.29331384149370
FENGYUN 3F              
1 57490U 23111A   26087.92524030  .00000072  00000+0  54245-4 0  9993
2 57490  98.6888 159.4119 0000896  80.8203 279.3075 14.19923841137475
ARKTIKA-M 2             
1 58584U 23198A   26082.52027795  .00000173  00000+0  00000+0 0  9997
2 58584  63.2220 163.8934 6881218 267.7008  18.8555  2.00606565 16600
TIANMU-1 11             
1 58645U 23205A   26087.88771042  .00007091  00000+0  27730-3 0  9998
2 58645  97.3526 110.7281 0007138 292.1265  67.9216 15.26129526125275
TIANMU-1 12             
1 58646U 23205B   26087.98658813  .00007208  00000+0  28245-3 0  9992
2 58646  97.3514 110.5992 0005350 269.9378  90.1248 15.26065314125278
TIANMU-1 13             
1 58647U 23205C   26087.88570615  .00007151  00000+0  27980-3 0  9997
2 58647  97.3542 110.7475 0005832 245.7503 114.3126 15.26113613125253
TIANMU-1 14             
1 58648U 23205D   26087.93615872  .00007527  00000+0  29454-3 0  9994
2 58648  97.3477 110.0485 0006500 251.9105 108.1426 15.26089573125267
TIANMU-1 19             
1 58660U 23208A   26087.89214745  .00011001  00000+0  37858-3 0  9999
2 58660  97.4399 203.9069 0004154 227.4491 132.6400 15.30226079125043
TIANMU-1 20             
1 58661U 23208B   26087.92693252  .00012199  00000+0  40426-3 0  9992
2 58661  97.4340 204.4948 0006097 242.2372 117.8252 15.31414584125134
TIANMU-1 21             
1 58662U 23208C   26087.89982962  .00013645  00000+0  42345-3 0  9997
2 58662  97.4395 206.8162 0006159 235.8656 124.2003 15.33490931125252
TIANMU-1 22             
1 58663U 23208D   26087.91476535  .00010727  00000+0  37398-3 0  9995
2 58663  97.4395 203.9278 0002447 255.0437 105.0532 15.29814849125051
TIANMU-1 15             
1 58700U 24004A   26087.93377186  .00007735  00000+0  30256-3 0  9997
2 58700  97.4679 274.1509 0005632 270.8252  89.2340 15.26104398123533
TIANMU-1 16             
1 58701U 24004B   26087.91681410  .00007701  00000+0  30099-3 0  9992
2 58701  97.4622 273.4434 0004062 274.7587  85.3187 15.26140939123538
TIANMU-1 17             
1 58702U 24004C   26087.96426986  .00007189  00000+0  28090-3 0  9991
2 58702  97.4653 273.9535 0003273 275.8806  84.2059 15.26176353123534
TIANMU-1 18             
1 58703U 24004D   26087.95014995  .00007081  00000+0  27723-3 0  9997
2 58703  97.4669 274.1538 0002646 274.4809  85.6127 15.26115825123537
INSAT-3DS               
1 58990U 24033A   26087.91755167 -.00000175  00000+0  00000+0 0  9999
2 58990   0.0168 129.3952 0002055 236.8533 232.4682  1.00271581 46261
METEOR-M2 4             
1 59051U 24039A   26087.92298372  .00000037  00000+0  36367-4 0  9991
2 59051  98.6939  48.2640 0007934  48.0081 312.1772 14.22420184107856
